CULTID,GISREADY,Contacted,Organizati,Criteria,Discipline,NumSeats,StreetAddr,Town,PostalCode,Contact,ContactTit,PhoneNum,Email,Website,Descriptio,Public,Longitude,Latitude,Gadd,Gtown,Gprov,F23,F24
      201.000000,        1.000000,        0.000000,Sea Pines Studio,Cultural Industry,Visual Art,n/a,2178 Saxon Street,Port Williams,B0P 1T0,Donna Hermiston,Artist,582-3292,,,"Donna specializes in realist painting in oil, watercolour and acrylics. Art placed throughout Canada, USA, and UK. Commissions welcome. Viewing by appointment.",,      -64.410020,       45.098000,2178 Saxon Street,Port Williams,NS,AV_Cultural/png/CulturalIndustry.png,
      102.000000,        1.000000,        0.000000,Domaine de Grand Pre & Le Caveau Restaurant,Cultural Industry,Agriculture,n/a,11611 Nova Scotia 1 Trunk,Grand Pre,BOP 1M0,,,542-1753,mail@grandprewines.ns.ca,http://www.grandprewines,"At Domaine de Grand Pr,, we take great pride in making the finest Nova Scotia wines. We work hard to develop special wines true to our province and unlike any others in the region - we grow specialty grapes",,      -64.307820,       45.101100,11611 Nova Scotia 1 Trunk,Grand Pre,NS,AV_Cultural/png/CulturalIndustry.png,
      146.000000,        1.000000,        0.000000,Books Galore,Cultural Industry,Literature,n/a,2591 Nova Scotia 1 Trunk,Coldbrook,B4R 1B6,,,679-9816,,,,,      -64.585320,       45.064760,2591 Nova Scotia 1 Trunk,Coldbrook,NS,AV_Cultural/png/CulturalIndustry.png,
      151.000000,        1.000000,        0.000000,The Canning Gazette,Cultural Industry,Media,n/a,2229 North Avenue,Canning,B0P 1H0,,,582-3768,village.canning@xcountry.tv,http://canningnovascotia.ca/gazette/canngazette-indx.html,,,      -64.421110,       45.158680,2229 North Avenue,Canning,NS,AV_Cultural/png/CulturalIndustry.png,
      111.000000,        1.000000,        0.000000,Fox Hill Cheese House,Cultural Industry,Artisanal Food,n/a,1678 Church Street,Port Williams,B0P 1T0,,,542-3599,foxhillfarm@ns.sympatico.ca,http://www.foxhillcheesehouse.com,It is with pride that Fox Hill Cheese House crafts over 20 varieties of cheese using milk from our own herd of Holstein cows. We feel that the commitment to using quality fresh milk enables us to bring you a truly,,      -64.398650,       45.112480,1678 Church Street,Port Williams,NS,AV_Cultural/png/CulturalIndustry.png,
      161.000000,        1.000000,        0.000000,Gaspereau Valley Gazette,Cultural Industry,Media,n/a,1725 White Rock Road,Wolfville,B4P 2R1,Daphne Frazee,Owner/Editor,542-4309,gaspereaugazette@accesswave.ca,http://www.reddragonflydmc.com/GaspereauValleyGazette,The Gaspereau Valley Gazette first appeared in May of 2007. Its purpose is to improve communications within the Valley thus creating more of a sense of community. It also gives local businesses a place to adver,,      -64.387760,       45.061780,1725 White Rock Road,Wolfville,NS,AV_Cultural/png/CulturalIndustry.png,
      103.000000,        1.000000,        0.000000,Luckett Vineyards,Cultural Industry,Agriculture,n/a,1293 Grand Pre Road,Grand Pre,B4P 2R3,,,542-2600,wine@luckettvineyards.com,http://www.luckettvineyards.com,"and certified organic.  For a unique wine experience, visit our geothermal winery and tasting bar overlooking our certified organic vineyard with stunning views of the Gaspereau Valley.  Wine shop and tasting b",,      -64.299780,       45.075870,1293 Grand Pre Road,Grand Pre,NS,AV_Cultural/png/CulturalIndustry.png,
      105.000000,        1.000000,        0.000000,Hennigar's Farm Market,Cultural Industry,Agriculture,n/a,10272 Nova Scotia 1 Trunk,Wolfville,B4P 2R2,Doug & Heather Hennigar,Owners,542-3503,info@hennigars.com,http://www.hennigars.com,"Hennigar's needs no introduction to many locals; a stop here is like ""coming home."" Browse the store for giftware, plants, baked goods, produce or line up for some of our famous ice-cream; have some delicious co",,      -64.386320,       45.085510,10272 Nova Scotia 1 Trunk,Wolfville,NS,AV_Cultural/png/CulturalIndustry.png,
      112.000000,        1.000000,        0.000000,Vector Instruments,Cultural Industry,Craft,n/a,1111 Russia Road,Black Rock,B0P 1V0,Nicholas Tipney,Artisan,538-3271,into@vectorinstuments.com,http://www.vectorinstruments.com,"Designer-builder of state-of-art custom instruments. Specializing in electric/acoustic violins, cellos, and upright basses. International reputation and clientele.",no,      -64.740260,       45.155700,1111 Russia Road,Black Rock,NS,AV_Cultural/png/CulturalIndustry.png,
      192.000000,        1.000000,        0.000000,The Printmaker Studio,Cultural Industry,Visual Art,n/a,1688 Brow of the Mountain Road,Centreville,B0P 1J0,Bob Hainstock,Artist,582-3656,,http://www.printmaker.ca,"Bob is a printmaker and painter of landscapes. He creates small editions in woodcuts, etchings, lithographs, collagraphs, and monoprints. He often uses handmade paper created from local materials. Instruction",,      -64.528870,       45.134140,1688 Brow of the Mountain Road,Centreville,NS,AV_Cultural/png/CulturalIndustry.png,
      173.000000,        2.000000,        0.000000,Dick Killam Photography Inc.,Cultural Industry,Photography,n/a,4079 Highway 359,Centreville,B0P 1J0,Dick Killam,.,679-1949,dick.killam@xcountry.tv,,,,      -64.528870,       45.134140,4079 Highway 359,Centreville,NS,AV_Cultural/png/CulturalIndustry.png,
      197.000000,        1.000000,        0.000000,Studio Twelve,Cultural Industry,Visual Art,n/a,4541 Nova Scotia 12 Trunk,Kentville,B4N 3V8,Erma Walker,Artist,678-8047,,,"Erma paints whatever grabs her: people in activity, landscapes, still life. Self-taught but studies with various artist. Work can be seen at Apple Bin Gallery, Aberdeen ArtSpace, the Fish Shack, and other locations.",,      -64.504600,       45.077840,4541 Nova Scotia 12 Trunk,Kentville,NS,AV_Cultural/png/CulturalIndustry.png,
      218.000000,        1.000000,        0.000000,Oaklawn Farm Zoo,Cultural Industry,Zoo,n/a,1007 Ward Road,Aylesford,B0P 1C0,,,847-9790,,http://oaklawnfarmzoo.ca,"A fun adventure for all ages, Oaklawn Farm Zoo boasts the largest display of Big Cats and Primates in Eastern Canada, and much more.
",,      -64.844850,       45.003180,1007 Ward Road,Aylesford,NS,AV_Cultural/png/CulturalIndustry.png,
      174.000000,        1.000000,        0.000000,Tides Photography Inc.,Cultural Industry,Photography,n/a,4079 Nova Scotia 359,Centreville,B0P 1J0,Dick Killam,Photographer,679-1949,,,"Dick Killam has been in business for over 30 years and is located in Halls Harbour, Nova Scotia, Canada. His home is located overlooking the Bay of Fundy which displays the highest tides in the world. This loc",,      -64.524690,       45.127970,4079 Nova Scotia 359,Centreville,NS,AV_Cultural/png/CulturalIndustry.png,
      148.000000,        1.000000,        0.000000,Rainbows End Books & discs,Cultural Industry,Literature,n/a,388 Nova Scotia 1 Trunk,Wolfville,B4P 1C9,,,697-3090,,,,,      -64.360190,       45.091710,388 Nova Scotia 1 Trunk,Wolfville,NS,AV_Cultural/png/CulturalIndustry.png,
      122.000000,        1.000000,        0.000000,Aspinall Pottery,Cultural Industry,Craft (pottery),n/a,9842 Main Street,Canning,B0P 1H0,Denise Aspinall,Artisan/Owner,582-7028,aspinallpottery@eastlink.ca,,"Porcelain mugs, bowls, platters, sauce dishes and more, thrown on the wheel and hand painted in delicate greens and blues.",,      -64.420210,       45.157300,9842 Main Street,Canning,NS,AV_Cultural/png/CulturalIndustry.png,
      166.000000,        1.000000,        0.000000,Digital Dungeon Studio,Cultural Industry,Music,n/a,80 Park Street,Kentville,B4N 1M3,Derek,Musician,365-2586,dereklindzon@hotmail.com,,Digital Dungeon Studio is fully equipped to record all your musical needs with Pro tools 8 up to 48 tracks available. Call or email for booking. Derek also teaches drum lessons.,,      -64.508370,       45.076880,80 Park Street,Kentville,NS,AV_Cultural/png/CulturalIndustry.png,
      170.000000,        1.000000,        0.000000,The Annapolis Academy of Music,Cultural Industry,Music,n/a,18-360 Main Street,Wolfville,B0P 1X0,Debbie Mailman,Owner,542-4456,,,Music School offering private and group instruction to all ages and abilities. A multi studio operation serving the community since 1993. Original and fun music programs for children birth to 8 years old. Summe,,      -64.337540,       45.094210,18-360 Main Street,Wolfville,NS,AV_Cultural/png/CulturalIndustry.png,
      189.000000,        1.000000,        0.000000,Carr/Bateman Studio,Cultural Industry,Visual Art,n/a,299 Woodside Road,Canning,B0P 1H0,Holly Carr & Alan Bateman,Artists,582-3309,mail@alanbateman.com,http://www.alanbateman.com,Alan & Holly are full-time artists who exhibit nationally. Their studio is at the base of the idyllic North Mountain.,,      -64.463350,       45.175780,299 Woodside Road,Canning,NS,AV_Cultural/png/CulturalIndustry.png,
       99.000000,        1.000000,        0.000000,Benjamin Bridge Vineyards,Cultural Industry,Agriculture,n/a,1841 White Rock Road,Gaspereau,B4P 2R1,,,542-9738,wines@benjaminbridge.com,http://www.benjaminbridge.com,,,      -64.380980,       45.064400,1841 White Rock Road,Gaspereau,NS,AV_Cultural/png/CulturalIndustry.png,
      153.000000,        1.000000,        0.000000,Apple Valley Scoop,Cultural Industry,Media,n/a,1561 Harrington Road,Kentville,B4N 3V7,,,678-8228,information@applevalleyscoop.com,http://applevalleyscoop.com,,,      -64.555240,       45.069490,1561 Harrington Road,Kentville,NS,AV_Cultural/png/CulturalIndustry.png,
      200.000000,        1.000000,        0.000000,Ink Spot Prining & Embroidery,Cultural Industry,Visual Art,n/a,8772 Commercial Street,New Minas,B4N 3C5,,,681-4465,mail@inkspot.ca,http://www.inkspot.ca,"At Inkspot Printing & Embroidery, we offer a one-stop shopping experience for your business, organization, team or personal needs.",,      -64.472570,       45.070980,8772 Commercial Street,New Minas,NS,AV_Cultural/png/CulturalIndustry.png,
      206.000000,        1.000000,        0.000000,Printemps Studio-Gallery,Cultural Industry,Visual Art,n/a,163 Main Street,Wolfville,B0P 1X0,Gudrun Mueller-Both,Artist,542-9483,,,"A graduate of printmaking at the University of Victoria, Gudrun works mainly with intaglio, woodcut-collage. She has exhibited in solo and group shows in Canada and Germany.",,      -64.348140,       45.092230,163 Main Street,Wolfville,NS,AV_Cultural/png/CulturalIndustry.png,
      177.000000,        1.000000,        0.000000,Photos by Trish,Cultural Industry,Photography,n/a,1164 Mc Kittrick Road,Kentville,B4N 2V9,Trish Robicheau,Photographer,679-1818,trishrobicheau@hotmail.com,http://www.photosbytrish.ca,,,      -64.495580,       45.092090,1164 Mc Kittrick Road,Kentville,NS,AV_Cultural/png/CulturalIndustry.png,
      143.000000,        1.000000,        0.000000,Wild Lupin Media,Cultural Industry,Film,n/a,41 Fielding Avenue,Kentville,B4N 2T4,,,678-7601,info@wildlupin.ca,http://www.wildlupin.ca,"One stop shopping for all your media needs. Whether you are in need of a completed project or professional consultation, we are here to help you achieve professional results for your business.",,      -64.520140,       45.072390,41 Fielding Avenue,Kentville,NS,AV_Cultural/png/CulturalIndustry.png,
      108.000000,        1.000000,        0.000000,Stirling Fruit Farms,Cultural Industry,Agriculture,n/a,10328 Nova Scotia 1 Trunk,Wolfville,B4P 2R2,,,542-3763,Hal@Stirlingsfruitfarms.ca,http://www.stirlingfruitfarms.ca,At Stirling Fruit Farms we have been growing apples for over three generations. On our farms in the Annapolis Valley we grow over 35 apple varieties. Today we are much more then apples! In our orchards we a,,      -64.382890,       45.085520,10328 Nova Scotia 1 Trunk,Wolfville,NS,AV_Cultural/png/CulturalIndustry.png,
      204.000000,        1.000000,        0.000000,I Box Publishing,Cultural Industry,Visual Art,n/a,1 - 614 Main Street,Wolfville,B4P 1E8,Mark Oakley,Artist,,moak@iboxpublishing.com,http://iboxpublishing.com/index.php,"Graphic novels, fantasy, and sci-fi cartoonist.",,      -64.337080,       45.094180,1 - 614 Main Street,Wolfville,NS,AV_Cultural/png/CulturalIndustry.png,
      100.000000,        1.000000,        0.000000,Gaspereau Vineyards,Cultural Industry,Agriculture,n/a,2239 White Rock Road,Gaspereau,B4P 2R1,,,542-1455,info@gaspereauwine.com,http://www.gaspereauwine.com,"The beautiful Gaspereau Valley is home to Gaspereau Vineyards, a small boutique winery showcasing some of the best wines Nova Scotia has to offer.",,      -64.356800,       45.068690,2239 White Rock Road,Gaspereau,NS,AV_Cultural/png/CulturalIndustry.png,
      172.000000,        1.000000,        0.000000,David Elliott Photography,Cultural Industry,Photography,n/a,153 Pereau Road,Canning,B0P 1H0,David Elliott,Photographer,582-3642,davephotoart@gmail.com,http://www.davidelliottphotography.com,David became seriously interested in photography about 10 years ago as a hobby. He not only does the photo shoot but also oversees and edits the photo from the time of capture to the final print.,,      -64.407220,       45.160130,153 Pereau Road,Canning,NS,AV_Cultural/png/CulturalIndustry.png,
      178.000000,        1.000000,        0.000000,Dave Hines Photography,Cultural Industry,Photography,n/a,383 Main Street,Wolfville,B0P 1X0,Dave Hines,Portrait Photographer,542-4463,d.hines@ns.sympatico.ca,,"Professional photography for graduation, families, weddings, business portraits, children and babies, passports.",,      -64.359740,       45.091730,383 Main Street,Wolfville,NS,AV_Cultural/png/CulturalIndustry.png,
      217.000000,        1.000000,        0.000000,Dragonfire Art,Cultural Industry,Visual Art/Literature,n/a,1122 First Street,Canning,B0P 1H0,Nancy J. Logeman,Artist/Writer,582-7681,,,"Nancy works mainly in acrylics and watercolour, some graphite, pen and ink. She prefers doing abstract and semi-abstract work, also landscapes and animal subjects. As a writer, she creates mainly poetry and",,      -64.421410,       45.159490,1122 First Street,Canning,NS,AV_Cultural/png/CulturalIndustry.png,
      167.000000,        1.000000,        0.000000,Long & McQuade,Cultural Industry,Music,n/a,1007 Dow Road,New Minas,B4N 3R4,,,681-1461,newminas@long-mcquade.com,http://www.long-mcquade.com,Long & McQuade is the largest chain of musical instrument retailers in Canada.,,      -64.468120,       45.067350,1007 Dow Road,New Minas,NS,AV_Cultural/png/CulturalIndustry.png,
      126.000000,        1.000000,        0.000000,Keltica Quilt Designs,Cultural Industry,Craft (quilting),n/a,28 Russia Road,Harbourville,B0P 1E0,Jean Huntley-Maynard,Artisan/Owner,538-0080,,http://www.kelticaquiltdesigns.ca,"Keltica Quilt Designs features quilts, wall hangings, runners and note cards - all with traditional celtic knots and animals. The gallery is open daily from May to September, by appointment or chance. Commissio",,      -64.802400,       45.150380,28 Russia Rd,Harbourville,NS,AV_Cultural/png/CulturalIndustry.png,
      144.000000,        1.000000,        0.000000,Empire Cinemas,Cultural Industry,Film,n/a,8944 Commercial Street,New Minas,B4N 3C9,,,681-8080,,http://www.empiretheatres.com,National chain of movie theatres and cinemas in Canada.,,      -64.462640,       45.068150,8944 Commercial Street,New Minas,NS,AV_Cultural/png/CulturalIndustry.png,
      116.000000,        1.000000,        0.000000,Little Foot Yurts,Cultural Industry,Craft,n/a,1459 White Rock Road,Wolfville,B4P 2R1,Selene and Alex Cole,Owners,670-4556,info@lfy.ca,http://www.lfy.ca,"We are builders of Nova Scotia coppice wood yurts, inspired by the Kyrgyz and Mongolian style yurts. Our mission is to make these beautiful shelters accessible through rentals, sales, and educational workshop",,      -64.402600,       45.056580,1459 White Rock Road,Wolfville,NS,AV_Cultural/png/CulturalIndustry.png,
      175.000000,        1.000000,        0.000000,Dreamcatchers Studios,Cultural Industry,Photography,n/a,3 River Street,Kentville,,Chelsea Brewster,Photographer,365-5998,dreamcapturing@gmail.com,http://www.dreamcapturing.com,"Specializing in photography, scrapbooking and portfolio development.",,      -64.495840,       45.079710,3 River Street,Kentville,NS,AV_Cultural/png/CulturalIndustry.png,
      157.000000,        1.000000,        0.000000,The Grapevine,Cultural Industry,Media,n/a,495 Main Street,Kentville,B4N 1L4,Jeremy Novak & Jocelyn Hatt,Co-Editors/Owners,692-8546.,grapevine.wolfville@gmail.com,http://grapevine.wolfville.org,"Radiating from Wolfville outwards, The Grapevine is a once-every-two-week countertop arts publication focusing on community, awareness and involvement.",,      -64.499870,       45.077620,495 Main Street,Kentville,NS,AV_Cultural/png/CulturalIndustry.png,
      187.000000,        1.000000,        0.000000,Capflex Networking,Cultural Industry,Visual Art,n/a,990 Alders Rd,"Kings, Subd. C","B4N 4K1
","Bruce Dienes
",Contact,678-6390,info@capflex.com,http://www.capflex.com,"CAPFLEX Networking aims to provide you with a high quality one-stop-shop for all your IT services, from web design to computer repair; from technical support to creative photography; from backup software to",,      -64.472700,       45.017600,990 Alders Rd,Kings,Subd. C,AV_Cultural/png/CulturalIndustry.png,
      195.000000,        1.000000,        0.000000,Manitou Art Gallery,Cultural Industry,Visual Art,n/a,"4623 Highway #2, North Alton, RR #2",Kentville,B4N 3V8,Bruce Rafuse,Artist,678-0453,,,"Bruce is self-trained and uses oil and charcoal in a photo-realism style. concentrating on wildlife, landscapes, native-Canadian and non-industrial subjects. Bruce also sculpts with bone, stone and wood.",,      -64.494470,       45.076910,4623 Highway #2,North Alton,RR #2,AV_Cultural/png/CulturalIndustry.png,NS
      147.000000,        1.000000,        0.000000,Coles,Cultural Industry,Literature,n/a,9256 Commercial Street,New Minas,B4N 4A9,,,681-0880,,,,,      -64.443200,       45.068340,9256 Commercial Street,New Minas,NS,AV_Cultural/png/CulturalIndustry.png,
      129.000000,        1.000000,        0.000000,Stained Glass Studio,Cultural Industry,Craft (stained glass),n/a,674 West Hall's Harbour Road,Hall's Harbour,B0P 1J0,,,678-3485,,,,,      -64.611580,       45.181670,674 West Hall's Harbour Road,Hall's Harbour,NS,AV_Cultural/png/CulturalIndustry.png,
      611.000000,        1.000000,        0.000000,Rhythm & Sole Dance Studio,Cultural Industry,Dance,n/a,12 Skyway Drive,Wolfville,B4P 1L1,,,678-7284,,,,,      -64.361110,       45.082570,12 Skyway Drive,Wolfville,NS,AV_Cultural/png/CulturalIndustry.png,
      128.000000,        1.000000,        0.000000,RHONDA does WHAT!,Cultural Industry,Craft (rug-making),n/a,51 John Pryor Drive,Wolfville,B4P 1P3,Rhonda Brennan,Artist,542-9826,,,"Reclamates/renovates/rejuvenates clothes, wood, paper, glass, textiles, furniture, plastic, metal. Creates rugs using 100% recycled materials, paintings, sculptures and ever so much more.",,      -64.355450,       45.081870,51 John Pryor Drive,Wolfville,NS,AV_Cultural/png/CulturalIndustry.png,
      213.000000,        1.000000,        0.000000,Atlantic Fabrics Crafts & More,Cultural Industry,Visual Art/Craft,n/a,963 Central Avenue,Greenwood,B0P 1N0,,,765-0600,info@atlanticfabrics.com,http://www.atlanticfabrics.com,"Graphite and Pastel portraits were a means of support throughout the college years and Eileen still does an occasional commission. Her other realist works feature a variety of materials including acrylic, waterco",,      -64.927290,       44.968620,963 Central Avenue,Greenwood,NS,AV_Cultural/png/CulturalIndustry.png,
      131.000000,        1.000000,        0.000000,Steven Kennard Studio Gallery,Cultural Industry,Craft (Wood Turner),n/a,9545 Nova Scotia 221,Canning,B0P 1H0,Steven Kennard,Owner/Artisan,582-3795,steven@stevenkennard.com,http://www.stevenkennard.com,"Steven's studio gallery features his award winning, turned and sculpted boxes of rare quality and beauty made from exotic woods.",,      -64.429170,       45.157390,9545 Nova Scotia 221,Canning,NS,AV_Cultural/png/CulturalIndustry.png,
      110.000000,        1.000000,        0.000000,Tangled Garden,Cultural Industry,Artisanal Food,n/a,11827 Nova Scotia 1 Trunk,Grand Pre,BOP 1MO,Beverly McClare,Owner,542-9811,tangledgarden@ns.sympatico.ca,http://www.tangledgarden.ns.ca,"Tangled Garden began 20 years ago with a handyman special on one acre of land in Grand Pre in the Annapolis Valley of Nova Scotia. The property now features our home, herb garden, labyrinth, gallery and a",,      -64.295890,       45.105190,11827 Nova Scotia 1 Trunk,Grand Pre,NS,AV_Cultural/png/CulturalIndustry.png,
      186.000000,        1.000000,        0.000000,Studio by the Lake,Cultural Industry,Visual Art,n/a,412 Lake Drive,"Kings, Subd. A",B0P 1G0,Dianne Arenburg,Arist,678-1637,,,"Produces original works in watercolour, pastel, oil, and pencil as well as unique clay creations. Dianne welcomes custom work and does portraits from photos. She invites you to visit her studio by appointment.",,      -64.594150,       45.018340,412 Lake Drive,,,AV_Cultural/png/CulturalIndustry.png,
      210.000000,        1.000000,        0.000000,The Pale Green Horse Studio/gallery,Cultural Industry,Visual Art,n/a,465 West Brooklyn Mountain Road,Wolfville,B0P 1X0,Jeanne Aisthorpe-Smith,Artist,542-0595,info@novascotiaart.com,,"Jeanne Aisthorpe-Smith works in several mediums, primarily oils. Her brightly colored landscapes are shown in several galleries across North America.",,      -64.265660,       45.073880,465 West Brooklyn Mountain Road,Wolfville,NS,AV_Cultural/png/CulturalIndustry.png,
      203.000000,        1.000000,        0.000000,Harvest Gallery,Cultural Industry,Visual Art,n/a,462 Main Street,Wolfville,B4P 1E2,,,542-7093,info@harvestgallery.ca,http://www.harvestgallery.ca,"Located in the charming town of Wolfville in Nova Scotia's bountiful Annapolis Valley, Harvest Gallery features a wonderfully diverse collection of art and fine craft from many of the region's best-loved artists a",,      -64.363140,       45.091500,462 Main Street,Wolfville,NS,AV_Cultural/png/CulturalIndustry.png,
      155.000000,        1.000000,        0.000000,Gaspereau Press,Cultural Industry,Media,n/a,47 Church Avenue,Kentville,B4N 2M7,,,678 6002,info@gaspereau.com,http://www.gaspereau.com,"At the core of our philosophy is a commitment to making books that reinstate the importance of the book as a physical object, reuniting publishing and the book arts.",,      -64.495730,       45.076380,47 Church Avenue,Kentville,NS,AV_Cultural/png/CulturalIndustry.png,
      123.000000,        1.000000,        0.000000,Sun Porch Pottery Studio,Cultural Industry,Craft (pottery),n/a,10228 Nova Scotia 221,Canning,B0P 1H0,Jane Harrington,Artisan,582-7762,sunporchpottery@yahoo.ca,,I have a small pottery studio in Habitant Nova Scotia. I sometimes teach classes or individuals. The studio is open by chance or appointment.,,      -64.414890,       45.156600,10228 Nova Scotia 221,Canning,NS,AV_Cultural/png/CulturalIndustry.png,
       98.000000,        1.000000,        0.000000,Blomidon Estate Winery,Cultural Industry,Agriculture,n/a,10318 Nova Scotia 221,Canning,B0P 1H0,,,582-7565,retail@blomidonwine.com,http://www.blomidonwine.com,"Rising majestically from the shores of the Minas Basin, Cape Blomidon is famous for its spectacular scenery and our proximity to this natural landmark provided the inspiration for our name.",,      -64.414890,       45.156600,10318 Nova Scotia 221,Canning,NS,AV_Cultural/png/CulturalIndustry.png,
      136.000000,        1.000000,        0.000000,Dance ConXion,Cultural Industry,Dance,n/a,1562 Newcombe Boulevard,Coldbrook,B4R 1A1,,,365-7300,info@danceconxion.com,http://www.danceconxion.com,"At Dance ConXion our goal is to encourage creative expression and positive self esteem through dance.Our certified staff is dedicated to providing quality instruction in an energetic, fun filled yet structured envir",,      -64.567070,       45.067660,1562 Newcombe Boulevard,Coldbrook,NS,AV_Cultural/png/CulturalIndustry.png,
      134.000000,        1.000000,        0.000000,Ironwood Forge and Woodworks,Cultural Industry,Craft (Woodwork/Blacksmith),n/a,149 Allison Coldwell Road,Wolfville,B0P 1X0,Ian Hope-Simpson,Artisan,542-2057,ian@hope-simpson.com,http://www.hope-simpson.com,"Largely self-taught, Ian is a traditional artist and blacksmith producing functional and sculptural creations for home and garden in iron and wood.",,      -64.383990,       45.040380,149 Allison Coldwell Road,Wolfville,NS,AV_Cultural/png/CulturalIndustry.png,
      119.000000,        1.000000,        0.000000,Ravens Light Studio,Cultural Industry,Craft (Glass artist),n/a,1181 Russia Road,Black Rock,B0P 1V0,Raven Hazelwood-Clark,Artist,538-3462,ravenglass99@yahoo.com,http://www.ravenslight.ca,"Bringing 24 years of passion and experience to the creation of art glass panels, Raven is a member of the Glass Artists Association of Canada. He creates dynamic commissioned free-hanging and architectural pi",,      -64.735780,       45.156490,1181 Russia Road,Black Rock,NS,AV_Cultural/png/CulturalIndustry.png,
      164.000000,        1.000000,        0.000000,Webster's Guitar Academy,Cultural Industry,Music,n/a,994 Pleasant Street,Canning,B0P 1H0,,,582-1786,info@webstersguitaracademy.com,http://www.webstersguitaracademy.com,"We specialize in fretted instruments. If you have an interest in guitar lessons (acoustic, electric, classical, Celtic or bass), or even bouzouki or mandolin lessons, then Webster's Guitar Academy is for you!",,      -64.418370,       45.158830,994 Pleasant Street,Canning,NS,AV_Cultural/png/CulturalIndustry.png,
      185.000000,        1.000000,        0.000000,Serendipity Studios,Cultural Industry,Visual Art,n/a,204 Main Street,Berwick,B0P 1E0,Sue Redford,Artist,538-0008,,,"Mainly self-taught, Sue's work is vignettes of everyday life, as well as architecture and wildlife. She has exhibited in juried competitions in BC and her work is in collections in Canada. Instruction offered.",,      -64.732270,       45.051240,204 Main Street,Berwick,NS,AV_Cultural/png/CulturalIndustry.png,
      109.000000,        1.000000,        0.000000,Ran-Cher Acres,Cultural Industry,Artisanal Food,n/a,744 Canaan Road,"Kings, Subd. A",B0P 1C0,"Randy, Cheryl & Sara Hiltz",Owners,847-3895,ran_cher_acres@eastlink.ca,http://www.rancheracres.com,"Ran-Cher Acres is a dairy goat farm specializing in cheese making, owned and operated by Randy and Cheryl Hiltz and their youngest daughter, Sara.",,      -64.766640,       44.974210,744 Canaan Road,"Kings, Subd. A",NS,AV_Cultural/png/CulturalIndustry.png,
      184.000000,        1.000000,        0.000000,Eileen Boyd Art Studio,Cultural Industry,Visual Art,n/a,1976 Hall Road,Berwick,B0P 1E0,Eileen Boyd,Visual Artist,538-1338,eileenboyd@eastlink.ca,http://www.eileenboyd.ca,"Graphite and Pastel portraits were a means of support throughout the college years and Eileen still does an occasional commission. Her other realist works feature a variety of materials including acrylic, waterco",,      -64.765180,       45.012910,1976 Hall Road,Berwick,NS,AV_Cultural/png/CulturalIndustry.png,
      162.000000,        1.000000,        0.000000,Wolfville Community Radio,Cultural Industry,Media,n/a,21 Elm Avenue,Wolfville,B4P 2A1,,,542-5760,info@wolfvilleradio.ca,http://www.wolfvilleradio.ca,,,      -64.363950,       45.092460,21 Elm Avenue,Wolfville,NS,AV_Cultural/png/CulturalIndustry.png,
      180.000000,        1.000000,        0.000000,Two Planks & A Passion Theatre,Cultural Industry,Theatre,n/a,555 Ross Creek Road,Canning,B0P 1H0,Ken Schwartz,Artistic Director,582-3073,mail@twoplanks.ca,http://www.twoplanks.ca,committed to creating unforgettable shared experiences through one of the oldest mediums that exists: the theatre.,,      -64.428110,       45.158350,555 Ross Creek Road,Canning,NS,AV_Cultural/png/CulturalIndustry.png,
      209.000000,        1.000000,        0.000000,Terry Drahos Studio,Cultural Industry,Visual Art,n/a,311 Main Street,Wolfville,B4P 1C7,Terry Drahos,Artist,,tdrahos@mac.com,http://www.terryhavlisdrahos.com,"Originally from Chicago, IL, Terry Havlis Drahos received her Bachelor of Design from Southern Illinois University in 1983. She completed her Bachelor of Education at Acadia and NSCAD Universities (Wolfvill",,      -64.357080,       45.091850,311 Main Street,Wolfville,NS,AV_Cultural/png/CulturalIndustry.png,
      127.000000,        1.000000,        0.000000,Lynn Denney Rug Hooking Studio,Cultural Industry,Craft (rug hooking),n/a,38 River Street,Kentville,B4N 1G9,Lynn Denney,Owner,365-3220,,http://www.nslocal.ca/lynndenney,"We offer traditional rug hooking wool, rug hooking kits, patterns, workshops, custom hooked portraits, custom dying, and more.",,      -64.495850,       45.079680,38 River Street,Kentville,NS,AV_Cultural/png/CulturalIndustry.png,
      202.000000,        1.000000,        0.000000,Starr's Point Studio,Cultural Industry,Visual Art,n/a,228 Collins Road,Port Williams,B0P 1T0,Marie-Jose Pelletier,Artist,542-7611,,,"Marie-Jose, an award-winning artist, brings an unusual perspective to the portraits and still life work she creates in paints and pastels.",,      -64.409260,       45.109770,228 Collins Road,Port Williams,NS,AV_Cultural/png/CulturalIndustry.png,
      152.000000,        1.000000,        0.000000,The Aurora Newspaper,Cultural Industry,Media,n/a,14 Wing Greenwood,Greenwood,B0P 1N0,Stephen Boates,Managing Editor,765-1494 ext 5441,editor@auroranewspaper.com,http://www.auroranewspaper.com,"The Aurora Newspaper is published each Monday by 14 Wing under the authority of Colonel J.A. Irvine, M.S.M., CD, Wing Commander.",,      -64.922470,       44.979700,14 Wing Greenwood,Greenwood,NS,AV_Cultural/png/CulturalIndustry.png,
      182.000000,        1.000000,        0.000000,Windsong Studio & Gallery,Cultural Industry,Visual Art,n/a,1331 Victoria Road,Aylesford,B0P 1C0,Twila Robart-Decoste,Artist,847-9847,windsong1331@yahoo.ca,http://www.windsong-nature-gallery.com,"Woodlands, gardens, and the Nova Scotia coast are the inspiration of Twila's realistic paintings. She works in watercolour, acrylic, and oil. Visitors are welcome to enjoy our gardens.",,      -64.839740,       45.033440,1331 Victoria Road,Aylesford,NS,AV_Cultural/png/CulturalIndustry.png,
      214.000000,        1.000000,        0.000000,Captain Hall's Treasure Chest,Cultural Industry,Visual Art/Craft,n/a,1157 West Hall's Harbour Road,Hall's Harbour,B0P 1J0,,,678-3855 *May to October,,http://paintsandpots.tripod.com,"Catch one of the six local artists from Paints and Pots Creative Artists, at work in the shop.Opening May 27th to October 9th; daily, open 11am to 6pm. Featuring fine art painting, functional pottery and horsehair",,      -64.620320,       45.200590,1157 West Hall's Harbour Road,Hall's Harbour,NS,AV_Cultural/png/CulturalIndustry.png,
      138.000000,        1.000000,        0.000000,Cornwallis Academy of Dance,Cultural Industry,Dance,n/a,354 Main Street,Kentville,B4N 1K6,Linda Jess,Educator,679-3616,,,,,      -64.494810,       45.076980,354 Main Street,Kentville,NS,AV_Cultural/png/CulturalIndustry.png,
      190.000000,        1.000000,        0.000000,Kingsport Studios,Cultural Industry,Visual Art,n/a,9844 Main Street,Canning,B0P 1H0,Ron Hayes,Artist,692-0909,info@kingsportstudios.com,http://www.kingsportstudios.com,"Nova Scotia artist, Ron Hayes' latest landscape paintings are large, textured canvases of the Annapolis valley where he now lives. With long beaches forever being covered and revealed in an endless tidal cycle h",,      -64.420100,       45.157270,9844 Main Street,Canning,NS,AV_Cultural/png/CulturalIndustry.png,
      117.000000,        1.000000,        0.000000,Tracy Horsman Ceramics,Cultural Industry,Craft (ceramics),n/a,100 Allison Coldwell Road,Wolfville,,Tracy Horsman,Potter,,tracyhorsman@gmail.com,http://thceramics.blogspot.com/p/home.html,,,      -64.383960,       45.040360,100 Allison Coldwell Road,Wolfville,NS,AV_Cultural/png/CulturalIndustry.png,
      130.000000,        1.000000,        0.000000,de Weever's Wovens,Cultural Industry,Craft (Weaving),n/a,3486 Nova Scotia 1 Trunk,Aylesford,B0P 1C0,Hilda de Weever,Weaver,847-9270,dwvrs@ns.sympatico.ca,http://www.deweeverswovens.com,"Beautiful and functional handwoven clothing in an array of colours and styles. Available in wool, cotton and chenille. Custom orders a speciality.",,      -64.847810,       45.020850,3486 Nova Scotia 1 Trunk,Aylesford,NS,AV_Cultural/png/CulturalIndustry.png,
      141.000000,        1.000000,        0.000000,Valley Drive-In Theatre,Cultural Industry,Film,n/a,5934 Nova Scotia 1 Trunk,Cambridge,,Kirk Longmire,Contact person,538-0772,valleydrivein@ns.sympatico.ca,http://valleydrivein.com,"Originally one of Canada's oldest solo screens, the Valley had gone dark when it's lease was not renewed. In an interesting turn of events, it was the local Lions Club that came to the rescue, and succeeded in obt",,      -64.626330,       45.058120,5934 Nova Scotia 1 Trunk,Cambridge,NS,AV_Cultural/png/CulturalIndustry.png,
      145.000000,        1.000000,        0.000000,Cinematopia Video,Cultural Industry,Film,n/a,418 Main Street,Wolfville,,,,697-3456,,http://cinematopia.ca,"With a deep felt respect for cinematic history, the collection from all the genres, including international offerings, classics, cult favourites,  documentaries, a variety of kids' entertainment, and the best of the newest releases.",,      -64.361430,       45.091580,418 Main Street,Wolfville,NS,AV_Cultural/png/CulturalIndustry.png,
      215.000000,        1.000000,        0.000000,Chicken Coop NS Folk Art Gallery,Cultural Industry,Visual Art/Craft,n/a,4092 Nova Scotia 359,Hall's Harbour,B0P 1J0,,,679 7073,copperfoxgallery@hotmail.com,http://www.copperfoxgallery.com,"One of the only Folk Art gallery on the Nova Scotia North Shore!! Nova Scotia Folk art is known all over the world..Folk art is also known as the ""art from the heart"". Those funky, fun creations are colorful, bright,",,      -64.599350,       45.192500,4092 Nova Scotia 359,Hall's Harbour,NS,AV_Cultural/png/CulturalIndustry.png,
      194.000000,        1.000000,        0.000000,Green Shutter Gallery,Cultural Industry,Visual Art,n/a,4092 Nova Scotia 359,Hall's Harbour,B0P 1J0,David Lacey,Artist,679-7073,,,David's style is impressionism and magic realism using various mediums. His work is in galleries throughout Nova Scotia and in collections throughout the world. He is found Co-Chair and member of the AKA,,      -64.599350,       45.192500,4092 Nova Scotia 359,Hall's Harbour,NS,AV_Cultural/png/CulturalIndustry.png,
      193.000000,        1.000000,        0.000000,Copper Fox Gallery,Cultural Industry,Visual Art,n/a,4092 Nova Scotia 359,Hall's Harbour,B0P 1J0,Fabienne Leydecker,Artist/Owner,679-7073,,http://copperfoxgallery.blogspot.ca,"Copper Fox Gallery features fine art and quality crafts by many well-known artists. Paintings, pottery, sculptures, folk art, stone carvings, wood carvings, we have a wonderful selection.",,      -64.599350,       45.192500,4092 Nova Scotia 359,Hall's Harbour,NS,AV_Cultural/png/CulturalIndustry.png,
      124.000000,        1.000000,        0.000000,Creative Diversion,Cultural Industry,Craft (pottery),n/a,4029 Nova Scotia 359,Halls Harbour,B0P 1J0,Terry-Lee Bourgeois-King,Artisan,679-0777,mud@creativediversion.com,http://www.creativediversion.com,Creative Diversion welcomes locals and visitors to take a class to relax. We encourage everyone to stop in on their way to beautiful Hall's Harbour. Creative Diversion is owned and operated by Terry-Lee Bourgeo,,      -64.599350,       45.192500,4029 Nova Scotia 359,Halls Harbour,NS,AV_Cultural/png/CulturalIndustry.png,
      140.000000,        1.000000,        0.000000,Sister Lotus,Cultural Industry,Dance,n/a,424 Nova Scotia 1 Trunk,Wolfville,,Angie Oriana Jenkins,Contact,680-8839,oriana@sisterlotus.com,http://www.sisterlotus.com,,,      -64.361590,       45.091560,424 Nova Scotia 1 Trunk,Wolfville,NS,AV_Cultural/png/CulturalIndustry.png,
      142.000000,        1.000000,        0.000000,Creative Action Digital Photo,Cultural Industry,Film,n/a,1064 J. Jordan Road,Canning,B0P 1H0,Kimberly Smith,Filmmaker/producer,582 3888,ks@creativeaction.ca,http://www.creativeaction.ca,My mission is to help you communicate with video either by making the video for you or by showing you how to do it yourself. For over a decade I have helped many people - especially those who are normally m,,      -64.436650,       45.161630,1064 J. Jordan Road,Canning,NS,AV_Cultural/png/CulturalIndustry.png,
      137.000000,        1.000000,        0.000000,Mary's Islanders Dance School,Cultural Industry,Dance,n/a,110 Church Street,Greenwood,B0P 1R0,Mary Dunlop,Instructor,847-3782,,http://rayport.ca/PhotoAlbums/album_1275183106,"The school runs from September to May in the Greenwood Mall. Highland, Irish, square, step, clogging, line and hip hop dance styles are taught. Classes available for children, seniors, and partners.",,      -64.926120,       44.974850,110 Church Street,Greenwood,NS,AV_Cultural/png/CulturalIndustry.png,
      160.000000,        1.000000,        0.000000,KROCK 89.3,Cultural Industry,Media,n/a,8794 Commercial Street,New Minas,B4N 3C5,,,365 - 8930,info@893krock.com,http://krock8932009.ncc.ca,,,      -64.472320,       45.070710,8794 Commercial Street,New Minas,NS,AV_Cultural/png/CulturalIndustry.png,
      156.000000,        1.000000,        0.000000,Magic 94.9,Cultural Industry,Media,n/a,29 Oakdene Avenue,Kentville,B4N 1H5,,,678-2111,,http://www.magic949.ca,,,      -64.492180,       45.083060,29 Oakdene Avenue,Kentville,NS,AV_Cultural/png/CulturalIndustry.png,
      154.000000,        1.000000,        0.000000,AVR 97.7,Cultural Industry,Media,n/a,29 Oakdene Avenue,Kentville,B4N 1H5,,,678-2111,,http://avrnetwork.com,,,      -64.492180,       45.083060,29 Oakdene Avenue,Kentville,NS,AV_Cultural/png/CulturalIndustry.png,
      208.000000,        1.000000,        0.000000,Steve Slipp Designs,Cultural Industry,Visual Art,n/a,39 Kent Avenue,Wolfville,B4P 1V4,Steven Slipp,Graphic Designer,542-2533,steven@slippdesign.ca,http://slippdesign.ca,"Steven Slipp is a 30 year veteran of the Nova Scotia creative design community. His specializations are visual and brand identity, interpretive media and exhibition design, wayfinding and orientation signage, a",,      -64.374720,       45.085740,39 Kent Avenue,Wolfville,NS,AV_Cultural/png/CulturalIndustry.png,
      169.000000,        1.000000,        0.000000,Marilyn Manzer Music Studio,Cultural Industry,Music,n/a,53 Pleasant Street,Wolfville,B4P 1M9,Marilyn Manzer,Musician/Educator,542-0558,manzer@ns.sympatico.ca,http://www3.ns.sympatico.ca/manzer/index.htm,"Marilyn has been teaching private music lessons (mostly piano) in her home in Wolfville since 1990. She also teaches voice, recorder, violin, and music theory. She taught Kindermusik to young children and pare",,      -64.347450,       45.084820,53 Pleasant Street,Wolfville,NS,AV_Cultural/png/CulturalIndustry.png,
      104.000000,        1.000000,        0.000000,Noggins Farm,Cultural Industry,Agriculture,n/a,10009 Nova Scotia 1 Trunk,Greenwich,B4P 2R2,,,542-5515,cebishop@nogginsfarm.ca,http://www.nogginsfarm.ca,Noggins Corner Farm combines the latest agricultural technology with the farming instincts of a family who is deeply rooted in the land.,,      -64.402230,       45.082690,10009 Nova Scotia 1 Trunk,Greenwich,NS,AV_Cultural/png/CulturalIndustry.png,
      115.000000,        1.000000,        0.000000,Applewicks,Cultural Industry,Craft,n/a,10 Gaspereau Avenue,Wolfville,B4P 2C2,,,542-9771,applewicks@larchehomefires.org,http://www.larchehomefires.org/applewicks/index.htm,"Since November 1, 1990, L'Arche Homefires has operated Applewicks, a workshop providing meaningful work and opportunities for adults with special needs. The workshop had various locations before movin",,      -64.359940,       45.091160,10 Gaspereau Avenue,Wolfville,NS,AV_Cultural/png/CulturalIndustry.png,
      149.000000,        1.000000,        0.000000,The Box of Delights Bookshop,Cultural Industry,Literature,n/a,466 Main Street,Wolfville,B4P 1E2,Mitzi DeWolfe,Owner,542-9511,,http://www.boxofdelightsbooks.com,"As a general bookshop we carry as many different and interesting titles as we can.  We do focus on local history, children's books, and fiction but tend to have a 'little bit of everything'.",,      -64.363320,       45.091460,466 Main Street,Wolfville,NS,AV_Cultural/png/CulturalIndustry.png,
      120.000000,        1.000000,        0.000000,Nova Gems,Cultural Industry,Craft (jewellery),n/a,22 Hillcrest Ave,Wolfville,B0P 1X0,Ivi Daborn,Artisan,542-5373,,,Ivi specializes in one-of-a-kind handcrafted sterling jewellery using stones from Nova Scotia as well as other locations.,,      -64.376330,       45.085500,22 Hillcrest Ave,Wolfville,NS,AV_Cultural/png/CulturalIndustry.png,
      198.000000,        1.000000,        0.000000,The Poor Man's Carpet,Cultural Industry,Visual Art,n/a,126 Eagle Creek Road,Kentville,B4N 5J4,Sheri Wheaton,Artist,678-6679,,,"Hand-painted, stencilled, custom-designed floorcloths you can walk on, hand on the wall, eat off, or set your drink on. Choose from in-stock or order to suit your decor. Made of 100% cotton, water base paints, an",,      -64.478030,       45.082330,126 Eagle Creek Road,Kentville,NS,AV_Cultural/png/CulturalIndustry.png,
      176.000000,        1.000000,        0.000000,Eden's Garden Studios,Cultural Industry,Photography,n/a,401 Main Street,Kentville,,Natasha Penney,Photographer,678-9966,,http://www.edensgarden.ca,"Fine Art, prenatal, infant, baby, children, high schools seniors, family photography",,      -64.496130,       45.077230,401 Main Street,Kentville,NS,AV_Cultural/png/CulturalIndustry.png,
      158.000000,        1.000000,        0.000000,The Register/Adverstiser,Cultural Industry,Media,n/a,28 Aberdeen Street Suite 6,Kentville,B4N 2N1,Jennifer Vardy Little,Editor,681-2121,events@kentvilleadvertiser.ca,http://www.kingscountynews.ca,,,      -64.496660,       45.078060,28 Aberdeen Street Suite 6,Kentville,NS,AV_Cultural/png/CulturalIndustry.png,
      211.000000,        1.000000,        0.000000,West-Wind Studio,Cultural Industry,Visual Art,n/a,16 Grandview Drive,Wolfville,B0P 1X0,Jan Gyorfi-West,Artist,542-5469,,,Jan was born and educated in England. She has been painting portraits for thirty years and has given numerous exhibitions and workshops in Nova Scotia and Quebec. She does portraits from sittings or photos.,,      -64.371360,       45.082340,16 Grandview Drive,Wolfville,NS,AV_Cultural/png/CulturalIndustry.png,
      101.000000,        1.000000,        0.000000,L'Acadie Vineyards,Cultural Industry,Agriculture,n/a,310 Slayter Road,Gaspereau,B4P 2R1,,,542-8463,info@lacadievineyards.ca,http://www.lacadievineyards.ca,"L'Acadie Vineyards is the premier producer of Traditional Method Sparkling Nova Scotia wine, an authentic wine style ideally suited for our cool climate terroir. With over 25 years of winemaking experience, we",,      -64.334090,       45.067460,310 Slayter Road,Gaspereau,NS,AV_Cultural/png/CulturalIndustry.png,
      196.000000,        1.000000,        0.000000,Mona Kay Studio,Cultural Industry,Visual Art,n/a,27 Glenview Avenue,Kentville,B4N 2R4,Mona K. Balcom,Artist,678-2672,,,"An eclectic approach creates striking use of colour, design and texture. Includes acrylics on fibre-glass, silkscreen prints with pen and ink etching, monoprints with printer's ink. Please phone for appointment.",,      -64.505550,       45.075900,27 Glenview Avenue,Kentville,NS,AV_Cultural/png/CulturalIndustry.png,
      114.000000,        1.000000,        0.000000,Gaspereau Valley Fibres,Cultural Industry,Craft,n/a,830 Gaspereau River Road,Gaspereau,B4P 2N5,Brenda Gilmour,Owner/Operator,542-2656,brenda@gaspereauvalleyfibres.ca,http://www.gaspereauvalleyfibres.ca,"We raise Cotswold sheep and produce yarn, spinning fibres, sheepskins, from our own flock. We also carry a large selection of yarns, equipment for knitters, spinners fibres and weavers.",,      -64.334390,       45.071170,830 Gaspereau River Road,Gaspereau,NS,AV_Cultural/png/CulturalIndustry.png,
      207.000000,        1.000000,        0.000000,Sea Mist Gallery,Cultural Industry,Visual Art,n/a,112 Front Street,Wolfville,B4P 1A4,Edwin Hollet,Artist,542-1094,,,"Edwin's paintings show the sea, wildlife, and the small villages, hamlets and towns of the Atlantic. Take a step into the past beauty of the Atlantic. You can purchase prints of the original paintings here, such as",,      -64.360000,       45.092400,112 Front Street,Wolfville,NS,AV_Cultural/png/CulturalIndustry.png,
      150.000000,        1.000000,        0.000000,The Odd Book,Cultural Industry,Literature,n/a,112 Front Street,Wolfville,B4P 1A4,,,542-9491,info@theoddbook.ca,http://www.theoddbook.ca,"Founded in 1977, The Odd Book provides second hand and rare books to satisfy a variety of tastes.  Travellers and Wolfville residents shop here for mysteries, westerns, science fiction and other light reading at a",,      -64.360000,       45.092400,112 Front Street,Wolfville,NS,AV_Cultural/png/CulturalIndustry.png,
      107.000000,        1.000000,        0.000000,Muir Murray Estate Winery,Cultural Industry,Agriculture,n/a,90 Dyke Road,Wolfville,B4P 2R1,,,542-0343,info@muirmurrayestatewinery.com,http://www.muirmurraywinery.com,Nestled in the beautiful Annapolis Valley near the town of Wolfville is Nova Scotia's newest Estate Winery.,,      -64.334910,       45.103000,90 Dyke Road,Wolfville,NS,AV_Cultural/png/CulturalIndustry.png,
      121.000000,        1.000000,        0.000000,From Rags to Witches Studio,Cultural Industry,Craft (leather),n/a,272 Randall Road,Kentville,B4N 3B5,Tyra Innis-Harvie,Artisan,678-0205,,,"With natural materials and discarded objects, Tyra creates a world of fantasy and spiritual being. She loves to work with driftwood, stone, fur, perennials, herbs and permanent garden structures.",,      -64.504470,       45.083330,272 Randall Road,Kentville,NS,AV_Cultural/png/CulturalIndustry.png,
      125.000000,        1.000000,        0.000000,Hall's Harbour Quilt Studio,Cultural Industry,Craft (quilting),n/a,641 W. Halls Harbour Road,Halls Harbour,B0P 1J0,Janet Gordon,Owner,679-2791,janet@novascotiaquilts.com,http://www.novascotiaquilts.com,"Quilt studio in owner's c.1820 home. Award winning traditional designs in all sizes; antique textiles and Nova Scotia folk art. Commissions welcome. I will demonstrate whatever aspect of quiltmaking I am wor",,      -64.609560,       45.179410,641 W Halls Harbour Road,Halls Harbour,NS,AV_Cultural/png/CulturalIndustry.png,
      191.000000,        1.000000,        0.000000,John Neville Gallery,Cultural Industry,Visual Art,n/a,1143 West Hall's Harbour Road,Centreville,B0P 1J0,John Neville,Artist/Owner,679-7148,john@jneville.ca,,"John Neville's nostalgic portrals of bygone days chronicle the folklore and daily lives of the local fishermen and their women from his childhood village. This popular Canadian artist, who splits his time between",,      -64.538380,       45.142900,1143 West Hall's Harbour Road,Centreville,NS,AV_Cultural/png/CulturalIndustry.png,
      133.000000,        1.000000,        0.000000,Riven Woodwork,Cultural Industry,Craft (Woodwork),n/a,1341 Meadow Road,Wolfville,B0P 1X0,Barry Brown,Artist,542-3178,,,"Barry creates walking sticks, pioneer whisks, coat hooks, spoons, spatulas, and Pennsylvania Dutch hay forks.",no,      -64.299530,       45.027570,1341 Meadow Road,Wolfville,NS,AV_Cultural/png/CulturalIndustry.png,
      139.000000,        1.000000,        0.000000,Cadance Academy,Cultural Industry,Dance,n/a,1019 Roy Avenue,New Minas,B4N 3R7,Gaea Jess,Manager,679-3616,info@cadanceacademy.ca,http://www.cadanceacademy.ca,"Cadance offers many different styles of dance including Ballet, Jazz, Modern, Hip Hop, Zumba, Yoga and so many more. Cadance is dedicated to providing qualified instruction in a non-competitive atmosphere.",,      -64.471390,       45.068040,1019 Roy Avenue,New Minas,NS,AV_Cultural/png/CulturalIndustry.png,
      199.000000,        1.000000,        0.000000,Larry Lee Art & Design,Cultural Industry,Visual Art,n/a,1328 Nova Scotia 1 Trunk,Kingston,B0P 1R0,Larry Lee,Artist,765-2587,,,"Self-taught with over 25 years experience, Larry is a muralist who uses a realism style. His work can be seen at the Greenwood Mall, Capitol Lounge and Grill in Middleton, and Roxy Restaurant and Lounge in K",,      -64.911710,       45.004820,1328 Nova Scotia 1 Trunk,Kingston,NS,AV_Cultural/png/CulturalIndustry.png,
      183.000000,        1.000000,        0.000000,Celtic Valley Studio,Cultural Industry,Visual Art,n/a,148 Maple Avenue,Berwick,B0P 1E0,Sybil Redden,Artist,538-7947,,,,,      -64.731720,       45.047550,148 Maple Avenue,Berwick,NS,AV_Cultural/png/CulturalIndustry.png,
      212.000000,        1.000000,        0.000000,Ocean Spirit Studio,Cultural Industry,Visual Art/Craft,n/a,9840 Main Street,Canning,B0P 1H0,Kathie Beyea,Owner,582-3089,info@oceanspiritstudio.com,http://www.oceanspiritstudio.com,"Ocean Spirit Studio strives to promote healthy and balanced lifestyle choices through participation in productive, purposeful and creative activities. Kathie Beyea has conceptualized a welcoming space that is in",,      -64.420320,       45.157340,9840 Main Street,Canning,NS,AV_Cultural/png/CulturalIndustry.png,
      188.000000,        1.000000,        0.000000,Apple Tree Studio,Cultural Industry,Visual Art,n/a,9840 Main Street,Canning,B0P 1H0,Neil Bennett,Artist,582-3537,appletree@ns.sympatico.ca,,"Trained in graphic design, self-taught pastel artist, custom framer.",,      -64.420320,       45.157340,9840 Main Street,Canning,NS,AV_Cultural/png/CulturalIndustry.png,
      163.000000,        1.000000,        0.000000,Brigadoon Camp,Cultural Industry,Multi,n/a,1650 N River Rd,South Alton,,Jen Kelday,Director of Programs,681-8100 ext: 224,,,"Year-round recreation for children and families with chronic illness and conditions. Alternative rental facility for off/low season bookings for school, corporate, or private groups. Programming includes Arts, Ou",,      -64.566680,       45.011880,1650 N River Rd,South Alton,NS,AV_Cultural/png/CulturalIndustry.png,
      999.000000,        1.000000,        0.000000,Brush of the Wind Gallery,Cultural Industry,Visual Art,,441 Canard Street,Port Williams,B0P 1T0,Rik Berry,Artist,902-582-3121,artist@rikberry.com,http://valleygate.getmyip.com/rikberry,I use acrylic and watercolors to explore new icons and symbols representing our journey with God and Gods way among us.,,        0.000000,        0.000000,,,,AV_Cultural/png/CulturalIndustry.png,
      998.000000,        0.000000,        0.000000,Wolfville Ghostly Walking Tours,Cultural Industry,Heritage,,,Wolfville,,Jeremy Novak,,(902) 692-8546 (cell),jerome@valleyghostwalks.com,http://www.wolfvillewalkingtours.com,"A 1.5 hour historical production of Wolfville's intriguing past, starting at 8:30pm at the ClockTower on Main.",,        0.000000,        0.000000,,,,AV_Cultural/png/CulturalIndustry.png,
     1001.000000,        1.000000,        0.000000,Stage Power Schools,Cultural Industry,Theatre,,65 Highland Ave.,Wolfville,B4P 1Z5,Karen Mallim,Contact Person,697-2799,info@stagepowerschools.com,http://stagepowerschools.com/,We offer 4 to 18 year-olds a training for life through the excitement and drama that surrounds the performing arts.,,        0.000000,        0.000000,,,,AV_Cultural/png/CulturalIndustry.png,
     1005.000000,        1.000000,        0.000000,Scotian Gold,Cultural Industry,Agriculture,,7027 Highway #1,Coldbrook,B4R 1B6,,,679-2191,scotian@scotiangold.com,http://www.scotiangold.com,Scotian Gold is a grower owned tree fruit cooperative owned by 30 apple grower members. It was formed in 1957 as a rebirth of The United Fruit Companies of Nova Scotia.,,        0.000000,        0.000000,,,,AV_Cultural/png/CulturalIndustry.png,
     1008.000000,        1.000000,        0.000000,Shooterbug photography,Cultural Industry,Photography,,129 Maple Avenue,Berwick,,Bob Federer & Colleen Dagnall,Photographers,375-2387,info@shooterbug.com,http://www.shooterbug.com,"Website design, image processing, workshops for amateur and professional photographers, photography.",,        0.000000,        0.000000,,,,AV_Cultural/png/CulturalIndustry.png,
     1009.000000,        1.000000,        0.000000,Cosman & Whidden Honey,Cultural Industry,Artisanal Food,,9925 Highway 1 RR2,Greenwich,B4P 2R2,Tom and Mary Anne,Owners,542-9443,info@novascotiahoney.com,http://www.novascotiahoney.com,We are a family farm devoted to beekeeping.,,        0.000000,        0.000000,,,,AV_Cultural/png/CulturalIndustry.png,
     1010.000000,        1.000000,        0.000000,Marie & Guy's French Bakery,Cultural Industry,Artisanal Food,,609 Main Street,Kingston,B0P 1C0,Marie & Guy,Owners,341-2093,baguettecroissantbrioche@yahoo.ca,,Traditional artisanal French Bakery,,        0.000000,        0.000000,,,,AV_Cultural/png/CulturalIndustry.png,
     1011.000000,        0.000000,        0.000000,Saraj bakery,Cultural Industry,Artisanal Food,,9145 Commercial Street,New Minas,B4N 3E6,,,365-3550,info@sarajbakery.com,http://www.sarajbakery.com,"Saraj focuses on a tradition of old-fashioned value and outstanding quality and such is reflected in every one of our hand-made breads, cakes, pastries, and baked European specialties.",,        0.000000,        0.000000,,,,AV_Cultural/png/CulturalIndustry.png,
     1012.000000,        1.000000,        0.000000,The Noodle Guy,Cultural Industry,Artisanal Foods,,980 Main Street,Port Williams,B0P 1T0,Ross Paterson,Owner,697-3906,ross@thenoodle.ca,http://www.thenoodle.ca,"All of our noodles are made by hand with ingredients that are as fresh and local as possible; many are from our own market garden.",,        0.000000,        0.000000,,,,AV_Cultural/png/CulturalIndustry.png,
     1013.000000,        1.000000,        0.000000,On that note music studio,Cultural Industry,Music,,2700 Prospect Rd.,Cambridge,,Dan Grantham,Musician/Educator,698-7464,info@onthatnote.ca,www.onthatnote.ca,"Offers students a relaxed, fun atmosphere where they can learn many genres including opera, classical, rock vocal, musical theatre and pop for voice, piano, guitar and bass.",,        0.000000,        0.000000,,,,AV_Cultural/png/CulturalIndustry.png,
